NORAD_CAT_ID,OBJECT_NAME,OBJECT_TYPE,EPOCH,MEAN_MOTION,ECCENTRICITY,INCLINATION,RA_OF_ASC_NODE,ARG_OF_PERICENTER,MEAN_ANOMALY,BSTAR,MEAN_MOTION_DOT,MEAN_MOTION_DDOT,TLE_LINE0,TLE_LINE1,TLE_LINE2,SEMIMAJOR_AXIS,PERIOD,APOGEE,PERIGEE,DECAYED
52838.0,STARLINK-4092,PAYLOAD,2023-12-29 09:03:55,15.08840462,0.0002003,53.2189,31.3397,105.8675,254.2538,-6.3361e-05,-1.297e-05,0.0,0 STARLINK-4092,1 52838U 22062J   23363.37772339 -.00001297  00000-0 -63361-4 0  9990,2 52838  53.2189  31.3397 0002003 105.8675 254.2538 15.08840462 85302,6917.879,95.438,541.13,538.358,0.0
52838.0,STARLINK-4092,PAYLOAD,2023-12-30 07:19:19,15.08839003,0.0001796,53.2189,27.178,107.667,252.4518,4.7334e-05,4.65e-06,0.0,0 STARLINK-4092,1 52838U 22062J   23364.30508217  .00000465  00000-0  47334-4 0  9992,2 52838  53.2189  27.1780 0001796 107.6670 252.4518 15.08839003 84951,6917.883,95.438,540.991,538.506,0.0
52838.0,STARLINK-4092,PAYLOAD,2023-12-31 11:56:15,15.08839921,0.0001604,53.2182,21.8234,98.6986,261.4188,6.2294e-05,7.04e-06,0.0,0 STARLINK-4092,1 52838U 22062J   23365.49740431  .00000704  00000-0  62294-4 0  9997,2 52838  53.2182  21.8234 0001604  98.6986 261.4188 15.08839921 85623,6917.881,95.438,540.855,538.636,0.0
52838.0,STARLINK-4092,PAYLOAD,2024-01-01 13:22:25,15.08843949,0.0001589,53.2179,17.0656,93.6352,266.4822,9.6991e-05,1.256e-05,0.0,0 STARLINK-4092,1 52838U 22062J   24001.55724209  .00001256  00000-0  96991-4 0  9991,2 52838  53.2179  17.0656 0001589  93.6352 266.4822 15.08843949 85296,6917.868,95.437,540.833,538.634,0.0
52838.0,STARLINK-4092,PAYLOAD,2024-01-02 00:30:08,15.08837461,0.0001592,53.2179,14.9842,94.672,265.4454,2.7205e-06,-2.45e-06,0.0,0 STARLINK-4092,1 52838U 22062J   24002.02092962 -.00000245  00000-0  27205-5 0  9999,2 52838  53.2179  14.9842 0001592  94.6720 265.4454 15.08837461 85857,6917.888,95.438,540.854,538.652,0.0
52838.0,STARLINK-4092,PAYLOAD,2024-01-02 08:27:03,15.0884178,0.0001601,53.218,13.4973,94.3254,265.7921,3.7703e-05,3.12e-06,0.0,0 STARLINK-4092,1 52838U 22062J   24002.35212613  .00000312  00000-0  37703-4 0  9999,2 52838  53.2180  13.4973 0001601  94.3254 265.7921 15.08841780 85411,6917.875,95.437,540.848,538.632,0.0
52838.0,STARLINK-4092,PAYLOAD,2024-01-03 09:53:13,15.08843107,0.000159,53.2179,8.7397,93.8283,266.2891,6.2991e-05,7.15e-06,0.0,0 STARLINK-4092,1 52838U 22062J   24003.41196450  .00000715  00000-0  62991-4 0  9991,2 52838  53.2179   8.7397 0001590  93.8283 266.2891 15.08843107 86068,6917.871,95.437,540.836,538.636,0.0
52838.0,STARLINK-4092,PAYLOAD,2024-01-04 04:57:51,15.08844003,0.0001558,53.2184,5.1701,101.3759,258.7408,2.9892e-05,1.88e-06,0.0,0 STARLINK-4092,1 52838U 22062J   24004.20684413  .00000188  00000-0  29892-4 0  9997,2 52838  53.2184   5.1701 0001558 101.3759 258.7408 15.08844003 85695,6917.868,95.437,540.811,538.655,0.0
52838.0,STARLINK-4092,PAYLOAD,2024-01-04 06:33:14,15.08844488,0.000152,53.2181,4.8727,93.1823,266.9343,4.0067e-05,3.5e-06,0.0,0 STARLINK-4092,1 52838U 22062J   24004.27308379  .00000350  00000-0  40067-4 0  9996,2 52838  53.2181   4.8727 0001520  93.1823 266.9343 15.08844488 85703,6917.867,95.437,540.783,538.68,0.0
52838.0,STARLINK-4092,PAYLOAD,2024-01-05 04:48:38,15.08842237,0.0001701,53.2194,0.7128,110.0907,250.0268,-1.9044e-05,-5.91e-06,0.0,0 STARLINK-4092,1 52838U 22062J   24005.20044659 -.00000591  00000-0 -19044-4 0  9998,2 52838  53.2194   0.7128 0001701 110.0907 250.0268 15.08842237 86330,6917.874,95.437,540.915,538.562,0.0
52838.0,STARLINK-4092,PAYLOAD,2024-01-05 06:24:01,15.0881976,0.0001597,53.2193,0.4142,109.5559,250.5606,0.00028151,4.193e-05,0.0,0 STARLINK-4092,1 52838U 22062J   24005.26668858  .00004193  00000-0  28151-3 0  9995,2 52838  53.2193   0.4142 0001597 109.5559 250.5606 15.08819760 86348,6917.942,95.439,540.912,538.702,0.0
52838.0,STARLINK-4092,PAYLOAD,2024-01-06 04:39:25,15.08838108,0.0001735,53.2194,356.2521,107.0013,253.117,-1.2805e-06,-3.08e-06,0.0,0 STARLINK-4092,1 52838U 22062J   24006.19404920 -.00000308  00000-0 -12805-5 0  9993,2 52838  53.2194 356.2521 0001735 107.0013 253.1170 15.08838108 86481,6917.886,95.438,540.951,538.551,0.0
52838.0,STARLINK-4092,PAYLOAD,2024-01-07 07:40:59,15.08839043,0.000155,53.2189,351.194,97.6137,262.5031,2.2403e-05,6.9e-07,0.0,0 STARLINK-4092,1 52838U 22062J   24007.32013049  .00000069  00000-0  22403-4 0  9993,2 52838  53.2189 351.1940 0001550  97.6137 262.5031 15.08839043 86658,6917.883,95.438,540.821,538.676,0.0
52838.0,STARLINK-4092,PAYLOAD,2024-01-08 07:31:46,15.08841377,0.0001573,53.219,346.7287,86.9971,273.1201,9.0896e-05,1.159e-05,0.0,0 STARLINK-4092,1 52838U 22062J   24008.31372937  .00001159  00000-0  90896-4 0  9999,2 52838  53.2190 346.7287 0001573  86.9971 273.1201 15.08841377 86319,6917.876,95.437,540.829,538.653,0.0
52838.0,STARLINK-4092,PAYLOAD,2024-01-09 04:11:47,15.08841444,0.0001452,53.2184,342.8648,102.8198,257.2957,4.3115e-05,3.98e-06,0.0,0 STARLINK-4092,1 52838U 22062J   24009.17485163  .00000398  00000-0  43115-4 0  9996,2 52838  53.2184 342.8648 0001452 102.8198 257.2957 15.08841444 86939,6917.876,95.437,540.745,538.736,0.0
52838.0,STARLINK-4092,PAYLOAD,2024-01-09 05:47:10,15.08842598,0.0001568,53.2192,342.5655,83.4059,276.7112,7.6215e-05,9.25e-06,0.0,0 STARLINK-4092,1 52838U 22062J   24009.24109075  .00000925  00000-0  76215-4 0  9992,2 52838  53.2192 342.5655 0001568  83.4059 276.7112 15.08842598 86458,6917.872,95.437,540.822,538.653,0.0
52838.0,STARLINK-4092,PAYLOAD,2024-01-09 21:41:01,15.08844383,0.0001388,53.2179,339.5987,93.5917,266.5234,1.8777e-05,1.1e-07,0.0,0 STARLINK-4092,1 52838U 22062J   24009.90349183  .00000011  00000-0  18777-4 0  9996,2 52838  53.2179 339.5987 0001388  93.5917 266.5234 15.08844383 86559,6917.867,95.437,540.692,538.772,0.0
52838.0,STARLINK-4092,PAYLOAD,2024-01-10 07:13:19,15.08855632,0.000144,53.2181,337.813,96.9463,263.1693,0.0001045,1.376e-05,0.0,0 STARLINK-4092,1 52838U 22062J   24010.30092023  .00001376  00000-0  10450-3 0  9994,2 52838  53.2181 337.8130 0001440  96.9463 263.1693 15.08855632 87108,6917.833,95.437,540.694,538.701,0.0
52838.0,STARLINK-4092,PAYLOAD,2024-01-11 03:53:21,15.08842078,0.0001573,53.2184,333.9494,82.0353,278.0818,1.7929e-05,-3e-08,0.0,0 STARLINK-4092,1 52838U 22062J   24011.16205243 -.00000003  00000-0  17929-4 0  9995,2 52838  53.2184 333.9494 0001573  82.0353 278.0818 15.08842078 87230,6917.874,95.437,540.827,538.651,0.0
52838.0,STARLINK-4092,PAYLOAD,2024-01-11 07:04:07,15.08841247,0.0001721,53.2208,333.3427,124.6214,235.4941,5.6773e-05,6.16e-06,0.0,0 STARLINK-4092,1 52838U 22062J   24011.29452790  .00000616  00000-0  56773-4 0  9999,2 52838  53.2208 333.3427 0001721 124.6214 235.4941 15.08841247 86769,6917.877,95.437,540.932,538.551,0.0
52838.0,STARLINK-4092,PAYLOAD,2024-01-11 21:22:35,15.0886525,0.0001628,53.2189,330.6667,144.4883,215.6218,-0.00042777,-7.094e-05,0.0,0 STARLINK-4092,1 52838U 22062J   24011.89069200 -.00007094  00000-0 -42777-3 0  9992,2 52838  53.2189 330.6667 0001628 144.4883 215.6218 15.08865250 86858,6917.803,95.436,540.794,538.542,0.0
52838.0,STARLINK-4092,PAYLOAD,2024-01-12 06:54:54,15.08846209,0.0001496,53.2181,328.891,99.3653,260.7508,-8.1638e-06,-4.18e-06,0.0,0 STARLINK-4092,1 52838U 22062J   24012.28812881 -.00000418  00000-0 -81638-5 0  9991,2 52838  53.2181 328.8910 0001496  99.3653 260.7508 15.08846209 87404,6917.861,95.437,540.761,538.691,0.0
52838.0,STARLINK-4092,PAYLOAD,2024-01-12 21:13:23,15.08836303,0.0001389,53.2185,326.2134,104.8315,255.2831,-5.0322e-05,-1.089e-05,0.0,0 STARLINK-4092,1 52838U 22062J   24012.88429944 -.00001089  00000-0 -50322-4 0  9991,2 52838  53.2185 326.2134 0001389 104.8315 255.2831 15.08836303 87004,6917.892,95.438,540.718,538.796,0.0
52838.0,STARLINK-4092,PAYLOAD,2024-01-13 03:34:55,15.08841904,0.0001391,53.2183,325.024,104.6985,255.4162,-1.3967e-05,-5.1e-06,0.0,0 STARLINK-4092,1 52838U 22062J   24013.14925491 -.00000510  00000-0 -13967-4 0  9991,2 52838  53.2183 325.0240 0001391 104.6985 255.4162 15.08841904 87531,6917.875,95.437,540.702,538.777,0.0
52838.0,STARLINK-4092,PAYLOAD,2024-01-13 06:45:41,15.08842047,0.0001426,53.2184,324.4292,105.7454,254.3696,-1.6234e-06,-3.14e-06,0.0,0 STARLINK-4092,1 52838U 22062J   24013.28173450 -.00000314  00000-0 -16234-5 0  9999,2 52838  53.2184 324.4292 0001426 105.7454 254.3696 15.08842047 87061,6917.874,95.437,540.726,538.753,0.0
52838.0,STARLINK-4092,PAYLOAD,2024-01-14 03:25:43,15.08838831,0.0001464,53.2187,320.5628,99.5395,260.5763,2.7189e-05,1.45e-06,0.0,0 STARLINK-4092,1 52838U 22062J   24014.14285986  .00000145  00000-0  27189-4 0  9993,2 52838  53.2187 320.5628 0001464  99.5395 260.5763 15.08838831 87688,6917.884,95.438,540.762,538.736,0.0
52838.0,STARLINK-4092,PAYLOAD,2024-01-14 06:36:29,15.08839732,0.0001544,53.2186,319.9683,102.7012,257.4153,4.358e-05,4.06e-06,0.0,0 STARLINK-4092,1 52838U 22062J   24014.27533864  .00000406  00000-0  43580-4 0  9991,2 52838  53.2186 319.9683 0001544 102.7012 257.4153 15.08839732 87210,6917.881,95.438,540.814,538.678,0.0
52838.0,STARLINK-4092,PAYLOAD,2024-01-14 20:54:57,15.08840903,0.0001505,53.2193,317.2914,98.747,261.3692,8.2978e-05,1.033e-05,0.0,0 STARLINK-4092,1 52838U 22062J   24014.87149929  .00001033  00000-0  82978-4 0  9993,2 52838  53.2193 317.2914 0001505  98.7470 261.3692 15.08840903 87309,6917.878,95.437,540.784,538.701,0.0
52838.0,STARLINK-4092,PAYLOAD,2024-01-15 01:41:06,15.08846146,0.0001598,53.2191,316.3993,104.1726,255.9444,0.0001203,1.627e-05,0.0,0 STARLINK-4092,1 52838U 22062J   24015.07021482  .00001627  00000-0  12030-3 0  9999,2 52838  53.2191 316.3993 0001598 104.1726 255.9444 15.08846146 87828,6917.862,95.437,540.832,538.621,0.0
52838.0,STARLINK-4092,PAYLOAD,2024-01-15 23:56:31,15.0884958,0.0002212,53.2191,312.2397,125.5953,234.5246,-0.00014772,-2.639e-05,0.0,0 STARLINK-4092,1 52838U 22062J   24015.99758221 -.00002639  00000-0 -14772-3 0  9999,2 52838  53.2191 312.2397 0002212 125.5953 234.5246 15.08849580 87967,6917.851,95.437,541.246,538.186,0.0
